     2.10           G: GLONASS NAV DATA                     RINEX VERSION / TYPE
teqc  2015Jun23                         20210611 02:25:49UTCPGM / RUN BY / DATE
Linux 2.4.21-27.ELsmp|Opteron|gcc -static|Linux x86_64|=+   COMMENT
  2021     5    18   -8.847564458847D-09                    CORR TO SYSTEM TIME
                                                            END OF HEADER
10 21  5 19  2 15  0.0-7.078051567078D-05-0.000000000000D+00 7.200000000000D+03
   -1.855361230469D+04-1.682972908020D+00-0.000000000000D+00 0.000000000000D+00
    1.171487353516D+04 6.149950027466D-01-9.313225746155D-10-7.000000000000D+00
    1.305752148438D+04-2.934789657593D+00-0.000000000000D+00 0.000000000000D+00
21 21  5 19  2 15  0.0-2.099713310599D-04-2.728484105319D-12 7.200000000000D+03
   -1.002109765625D+04 5.243215560913D-01 0.000000000000D+00 0.000000000000D+00
    2.190041601562D+04-1.054682731628D+00 0.000000000000D+00 4.000000000000D+00
    8.432525878906D+03 3.358087539673D+00-9.313225746155D-10 0.000000000000D+00
22 21  5 19  2 15  0.0-1.133652403951D-04-1.818989403546D-12 7.200000000000D+03
   -2.895027832031D+03-1.003494262695D-01 9.313225746155D-10 0.000000000000D+00
    2.385137060547D+04 1.174726486206D+00 9.313225746155D-10-3.000000000000D+00
   -8.437532226562D+03 3.371539115906D+00-0.000000000000D+00 0.000000000000D+00
 1 21  5 19  2 45  0.0 7.965508848429D-05 0.000000000000D+00 9.000000000000D+03
    1.792282666016D+04-6.224937438965D-01 1.862645149231D-09 0.000000000000D+00
    1.700252587891D+04-6.295938491821D-01 9.313225746155D-10 1.000000000000D+00
   -6.382990234375D+03-3.419198036194D+00-9.313225746155D-10 0.000000000000D+00
 8 21  5 19  2 45  0.0-5.904305726290D-05-9.094947017729D-13 9.000000000000D+03
    6.404894042969D+03-1.976937294006D+00 1.862645149231D-09 0.000000000000D+00
    1.612004296875D+04-1.638820648193D+00 9.313225746155D-10 6.000000000000D+00
   -1.863472558594D+04-2.091868400574D+00 0.000000000000D+00 0.000000000000D+00
10 21  5 19  2 45  0.0-7.078144699335D-05-0.000000000000D+00 9.000000000000D+03
   -2.085220117188D+04-8.615703582764D-01-0.000000000000D+00 0.000000000000D+00
    1.279149755859D+04 5.392360687256D-01-9.313225746155D-10-7.000000000000D+00
    7.339740722656D+03-3.377132415771D+00 0.000000000000D+00 0.000000000000D+00
21 21  5 19  2 45  0.0-2.099759876728D-04-2.728484105319D-12 9.000000000000D+03
   -9.100291992188D+03 4.572143554688D-01-0.000000000000D+00 0.000000000000D+00
    1.923897509766D+04-1.884620666504D+00-0.000000000000D+00 4.000000000000D+00
    1.407336621094D+04 2.868830680847D+00-9.313225746155D-10 0.000000000000D+00
22 21  5 19  2 45  0.0-1.133689656854D-04-1.818989403546D-12 9.000000000000D+03
   -2.774309570312D+03 1.963443756104D-01 9.313225746155D-10 0.000000000000D+00
    2.521635107422D+04 3.209877014160D-01 9.313225746155D-10-3.000000000000D+00
   -2.119618164062D+03 3.602557182312D+00-0.000000000000D+00 0.000000000000D+00
23 21  5 19  2 45  0.0 3.859093412757D-04 1.818989403546D-12 9.210000000000D+03
    7.152259277344D+03-2.846145629883D-01 1.862645149231D-09 0.000000000000D+00
    1.368812890625D+04 2.771106719971D+00 9.313225746155D-10 3.000000000000D+00
   -2.031131689453D+04 1.768725395203D+00 0.000000000000D+00 0.000000000000D+00
23 21  5 19  3 15  0.0 3.859139978886D-04 1.818989403546D-12 1.080000000000D+04
    7.045394531250D+03 1.434659957886D-01 1.862645149231D-09 0.000000000000D+00
    1.824468701172D+04 2.247318267822D+00 9.313225746155D-10 3.000000000000D+00
   -1.638423095703D+04 2.566446304321D+00 0.000000000000D+00 0.000000000000D+00
 1 21  5 19  3 15  0.0 7.965601980686D-05 0.000000000000D+00 1.080000000000D+04
    1.609874169922D+04-1.406481742859D+00 1.862645149231D-09 0.000000000000D+00
    1.557626171875D+04-9.127531051636D-01 9.313225746155D-10 1.000000000000D+00
   -1.221148486328D+04-3.014863967896D+00-0.000000000000D+00 0.000000000000D+00
 8 21  5 19  3 15  0.0-5.904491990805D-05-9.094947017729D-13 1.080000000000D+04
    2.305779785156D+03-2.550006866455D+00 1.862645149231D-09 0.000000000000D+00
    1.322347460938D+04-1.538078308105D+00 9.313225746155D-10 6.000000000000D+00
   -2.162646337891D+04-1.210496902466D+00 9.313225746155D-10 0.000000000000D+00
10 21  5 19  3 15  0.0-7.078144699335D-05-0.000000000000D+00 1.080000000000D+04
   -2.165615722656D+04-4.153442382812D-02-0.000000000000D+00 0.000000000000D+00
    1.350585546875D+04 2.145481109619D-01-9.313225746155D-10-7.000000000000D+00
    1.056463867188D+03-3.559115409851D+00 9.313225746155D-10 0.000000000000D+00
21 21  5 19  3 15  0.0-2.099806442857D-04-2.728484105319D-12 1.080000000000D+04
   -8.511203125000D+03 1.646947860718D-01-9.313225746155D-10 0.000000000000D+00
    1.521309912109D+04-2.553159713745D+00-0.000000000000D+00 4.000000000000D+00
    1.862689257812D+04 2.157776832581D+00-9.313225746155D-10 0.000000000000D+00
22 21  5 19  3 15  0.0-1.133736222982D-04-1.818989403546D-12 1.080000000000D+04
   -2.336773437500D+03 2.469539642334D-01 0.000000000000D+00 0.000000000000D+00
    2.496693603516D+04-5.990104675293D-01 0.000000000000D+00-3.000000000000D+00
    4.363125000000D+03 3.553409576416D+00-0.000000000000D+00 0.000000000000D+00
23 21  5 19  3 45  0.0 3.859186545014D-04 1.818989403546D-12 1.260000000000D+04
    7.561892089844D+03 3.945817947388D-01 1.862645149231D-09 0.000000000000D+00
    2.164210742188D+04 1.497422218323D+00 0.000000000000D+00 3.000000000000D+00
   -1.119122558594D+04 3.166153907776D+00-0.000000000000D+00 0.000000000000D+00
 1 21  5 19  3 45  0.0 7.965695112944D-05 0.000000000000D+00 1.260000000000D+04
    1.288601806641D+04-2.146368026733D+00 2.793967723846D-09 0.000000000000D+00
    1.387130859375D+04-9.396142959595D-01 9.313225746155D-10 1.000000000000D+00
   -1.709625927734D+04-2.377404212952D+00 0.000000000000D+00 0.000000000000D+00
 8 21  5 19  3 45  0.0-5.904678255320D-05-9.094947017729D-13 1.260000000000D+04
   -2.647877441406D+03-2.912027359009D+00 1.862645149231D-09 0.000000000000D+00
    1.071404931641D+04-1.220064163208D+00 0.000000000000D+00 6.000000000000D+00
   -2.293572167969D+04-2.347240447998D-01 1.862645149231D-09 0.000000000000D+00
10 21  5 19  3 45  0.0-7.078144699335D-05-0.000000000000D+00 1.260000000000D+04
   -2.106924121094D+04 6.666917800903D-01-0.000000000000D+00 0.000000000000D+00
    1.343435546875D+04-3.246622085571D-01-9.313225746155D-10-7.000000000000D+00
   -5.308187988281D+03-3.466992378235D+00 1.862645149231D-09 0.000000000000D+00
21 21  5 19  3 45  0.0-2.099862322211D-04-2.728484105319D-12 1.260000000000D+04
   -8.599842773438D+03-2.809505462646D-01-1.862645149231D-09 0.000000000000D+00
    1.019953320312D+04-2.969769477844D+00-0.000000000000D+00 4.000000000000D+00
    2.174090283203D+04 1.279726028442D+00-9.313225746155D-10 0.000000000000D+00
22 21  5 19  3 45  0.0-1.133782789111D-04-1.818989403546D-12 1.260000000000D+04
   -2.036582031250D+03 4.697036743164D-02 0.000000000000D+00 0.000000000000D+00
    2.309376318359D+04-1.462881088257D+00 0.000000000000D+00-3.000000000000D+00
    1.050627099609D+04 3.227692604065D+00-9.313225746155D-10 0.000000000000D+00
12 21  5 19  3 45  0.0 2.300757914782D-04 3.637978807092D-12 1.353000000000D+04
    2.765208984375D+03-2.423353195190D+00-9.313225746155D-10 0.000000000000D+00
    1.149114843750D+04 1.919775009155D+00 0.000000000000D+00-1.000000000000D+00
    2.263145410156D+04-6.777296066284D-01-1.862645149231D-09 0.000000000000D+00
24 21  5 19  3 45  0.0 4.319846630096D-05 9.094947017729D-13 1.434000000000D+04
    1.087634033203D+04 3.934659957886D-01 2.793967723846D-09 0.000000000000D+00
    1.022080761719D+04 2.808477401733D+00 0.000000000000D+00 2.000000000000D+00
   -2.067689941406D+04 1.593403816223D+00 0.000000000000D+00 0.000000000000D+00
23 21  5 19  4 15  0.0 3.859233111143D-04 1.818989403546D-12 1.440000000000D+04
    8.321794921875D+03 4.070158004761D-01 1.862645149231D-09 0.000000000000D+00
    2.355946337891D+04 6.215791702271D-01 0.000000000000D+00 3.000000000000D+00
   -5.133177246094D+03 3.521328926086D+00-0.000000000000D+00 0.000000000000D+00
 1 21  5 19  4 15  0.0 7.965788245201D-05 0.000000000000D+00 1.440000000000D+04
    8.464312011719D+03-2.732810020447D+00 2.793967723846D-09 0.000000000000D+00
    1.233359716797D+04-7.345991134644D-01 0.000000000000D+00 1.000000000000D+00
   -2.065946435547D+04-1.555967330933D+00 9.313225746155D-10 0.000000000000D+00
 8 21  5 19  4 15  0.0-5.904864519835D-05-9.094947017729D-13 1.440000000000D+04
   -8.008979492188D+03-2.994586944580D+00 9.313225746155D-10 0.000000000000D+00
    8.911664062500D+03-7.687225341797D-01-0.000000000000D+00 6.000000000000D+00
   -2.246060253906D+04 7.591152191162D-01 1.862645149231D-09 0.000000000000D+00
10 21  5 19  4 15  0.0-7.078144699335D-05-0.000000000000D+00 1.440000000000D+04
   -1.937748828125D+04 1.173746109009D+00 0.000000000000D+00 0.000000000000D+00
    1.225200146484D+04-1.004721641541D+00-9.313225746155D-10-7.000000000000D+00
   -1.126412500000D+04-3.107913970947D+00 2.793967723846D-09 0.000000000000D+00
22 21  5 19  4 15  0.0-1.133829355240D-04-1.818989403546D-12 1.440000000000D+04
   -2.293611328125D+03-3.615636825562D-01-0.000000000000D+00 0.000000000000D+00
    1.980317773438D+04-2.156648635864D+00-0.000000000000D+00-3.000000000000D+00
    1.583181250000D+04 2.650968551636D+00-9.313225746155D-10 0.000000000000D+00
24 21  5 19  4 15  0.0 4.320126026869D-05 1.818989403546D-12 1.440000000000D+04
    1.186949658203D+04 6.794977188110D-01 2.793967723846D-09 0.000000000000D+00
    1.479838964844D+04 2.239440917969D+00 0.000000000000D+00 2.000000000000D+00
   -1.704600195312D+04 2.414682388306D+00 0.000000000000D+00 0.000000000000D+00
12 21  5 19  4 15  0.0 2.300785854459D-04 3.637978807092D-12 1.443000000000D+04
   -1.169751953125D+03-1.921138763428D+00-9.313225746155D-10 0.000000000000D+00
    1.510070312500D+04 2.048587799072D+00-0.000000000000D+00-1.000000000000D+00
    2.055496826172D+04-1.614539146423D+00-9.313225746155D-10 0.000000000000D+00
